{"version": 0.6, "generator": "Overpass API 0.7.62.8 e802775f", "osm3s": {"timestamp_osm_base": "2025-11-29T10:56:30Z", "copyright": "The data included in this document is from www.openstreetmap.org. The data is made available under ODbL."}, "elements": [{"type": "node", "id": 1558570159, "lat": 55.696811, "lon": 37.9358711}, {"type": "node", "id": 1610353765, "lat": 55.6956619, "lon": 37.9317067}, {"type": "node", "id": 1610353774, "lat": 55.6941744, "lon": 37.9315136}, {"type": "node", "id": 1610353790, "lat": 55.693606, "lon": 37.9335092}, {"type": "node", "id": 1610353801, "lat": 55.6935878, "lon": 37.9336057}, {"type": "node", "id": 1610353812, "lat": 55.693346, "lon": 37.9366742}, {"type": "node", "id": 1610353830, "lat": 55.6931918, "lon": 37.936642}, {"type": "node", "id": 1610353836, "lat": 55.6930255, "lon": 37.9385678}, {"type": "node", "id": 1610353842, "lat": 55.6944798, "lon": 37.9391686}, {"type": "node", "id": 1610353852, "lat": 55.6946491, "lon": 37.9388039}, {"type": "node", "id": 1610353858, "lat": 55.6949876, "lon": 37.9389581}, {"type": "node", "id": 1610353863, "lat": 55.6950028, "lon": 37.9388722}, {"type": "node", "id": 1610353914, "lat": 55.6951207, "lon": 37.9388924}, {"type": "node", "id": 1610361292, "lat": 55.694857, "lon": 37.9388986}, {"type": "node", "id": 1610363893, "lat": 55.6952033, "lon": 37.9377409}, {"type": "node", "id": 1610363894, "lat": 55.6950754, "lon": 37.9393403}, {"type": "node", "id": 1610363895, "lat": 55.6959884, "lon": 37.9397587}, {"type": "node", "id": 1610363896, "lat": 55.696451, "lon": 37.9397037}, {"type": "node", "id": 1610363897, "lat": 55.6964903, "lon": 37.9380957}, {"type": "node", "id": 2481130473, "lat": 55.7016949, "lon": 37.9204313, "tags": {"amenity": "pharmacy", "contact:phone": "+7 499 6536277", "contact:website": "https://gorzdrav.org", "healthcare": "pharmacy", "name": "\u0413\u043e\u0440\u0437\u0434\u0440\u0430\u0432", "opening_hours": "Mo-Fr 08:00-22:00; Sa-Su 09:00-21:00"}}, {"type": "node", "id": 4135619001, "lat": 55.6950898, "lon": 37.9388859, "tags": {"access": "private", "barrier": "gate", "bicycle": "yes", "foot": "yes", "horse": "yes", "motorcar": "yes", "motorcycle": "yes"}}, {"type": "node", "id": 4135619007, "lat": 55.6952625, "lon": 37.939426, "tags": {"barrier": "gate"}}, {"type": "node", "id": 4135619202, "lat": 55.6957604, "lon": 37.9396542, "tags": {"barrier": "gate"}}, {"type": "node", "id": 4151566789, "lat": 55.6832721, "lon": 37.9150826, "tags": {"amenity": "pharmacy", "healthcare": "pharmacy", "wheelchair": "yes"}}, {"type": "node", "id": 4221673493, "lat": 55.7028736, "lon": 37.9205282, "tags": {"amenity": "pharmacy", "contact:phone": "+7 499 6536277", "contact:website": "https://gorzdrav.org", "healthcare": "pharmacy", "name": "\u0413\u043e\u0440\u0437\u0434\u0440\u0430\u0432", "opening_hours": "Mo-Su 09:00-21:00"}}, {"type": "node", "id": 4386749001, "lat": 55.6995038, "lon": 37.92057, "tags": {"amenity": "dentist", "health_facility:type": "clinic", "health_specialty:dentistry": "yes", "healthcare": "dentist", "medical_system:western": "yes", "name": "\u0421\u0442\u043e\u043c\u0430\u0442\u043e\u043b\u043e\u0433\u0438\u044f \u0432.\u0430.", "name:uk": "\u0421\u0442\u043e\u043c\u0430\u0442\u043e\u043b\u043e\u0433\u0456\u044f \u0432.\u043e."}}, {"type": "node", "id": 4565078690, "lat": 55.703572, "lon": 37.9233507, "tags": {"amenity": "doctors", "name": "\u0414\u043e\u043a\u0442\u043e\u0440 \u0440\u044f\u0434\u043e\u043c", "opening_hours": "Mo-Fr 08:00-20:00; Sa 10:00-17:00; Su 10:00-14:00"}}, {"type": "node", "id": 5010855928, "lat": 55.6985568, "lon": 37.9292223}, {"type": "node", "id": 5010855929, "lat": 55.6985025, "lon": 37.9292223}, {"type": "node", "id": 5010855930, "lat": 55.6985025, "lon": 37.9292679}, {"type": "node", "id": 5010855931, "lat": 55.6984268, "lon": 37.9292679}, {"type": "node", "id": 5010855932, "lat": 55.6984268, "lon": 37.929807}, {"type": "node", "id": 5010855933, "lat": 55.6984706, "lon": 37.929807}, {"type": "node", "id": 5010855934, "lat": 55.6984706, "lon": 37.9299062}, {"type": "node", "id": 5010855935, "lat": 55.6985159, "lon": 37.9299062}, {"type": "node", "id": 5010855936, "lat": 55.6985159, "lon": 37.9300972}, {"type": "node", "id": 5010855937, "lat": 55.6990468, "lon": 37.9300972}, {"type": "node", "id": 5010855938, "lat": 55.6990468, "lon": 37.9300299}, {"type": "node", "id": 5010855939, "lat": 55.6990646, "lon": 37.9299937}, {"type": "node", "id": 5010855940, "lat": 55.6991773, "lon": 37.9298761}, {"type": "node", "id": 5010855941, "lat": 55.6990463, "lon": 37.9297462}, {"type": "node", "id": 5010855942, "lat": 55.6989742, "lon": 37.9298671}, {"type": "node", "id": 5010855943, "lat": 55.6987291, "lon": 37.9298671}, {"type": "node", "id": 5010855944, "lat": 55.6987291, "lon": 37.9296997}, {"type": "node", "id": 5010855945, "lat": 55.6985568, "lon": 37.9296997}, {"type": "node", "id": 5085491740, "lat": 55.6869469, "lon": 37.9204354, "tags": {"amenity": "doctors", "name": "\u041c\u0435\u0434\u0438\u0446\u0438\u043d\u0441\u043a\u0438\u0439 \u0446\u0435\u043d\u0442\u0440"}}, {"type": "node", "id": 5106116322, "lat": 55.6976749, "lon": 37.9237679, "tags": {"amenity": "clinic", "email": "ameda2017@icloud.com", "name": "\u0410\u043c\u0435\u0434\u0430", "opening_hours": "Mo-Su 09:00-20:00", "phone": "+7 495 1420503"}}, {"type": "node", "id": 5139880716, "lat": 55.6961916, "lon": 37.9380134}, {"type": "node", "id": 5139881327, "lat": 55.6952726, "lon": 37.93776}, {"type": "node", "id": 5139881329, "lat": 55.6949683, "lon": 37.9389493, "tags": {"entrance": "yes"}}, {"type": "node", "id": 5139881341, "lat": 55.6965956, "lon": 37.9381163}, {"type": "node", "id": 5139881342, "lat": 55.6958179, "lon": 37.9316952}, {"type": "node", "id": 6126969934, "lat": 55.6986248, "lon": 37.9239353, "tags": {"amenity": "pharmacy", "healthcare": "pharmacy"}}, {"type": "node", "id": 6270451784, "lat": 55.7017713, "lon": 37.9362408, "tags": {"amenity": "pharmacy", "healthcare": "pharmacy"}}, {"type": "node", "id": 7354051954, "lat": 55.6989787, "lon": 37.9281655, "tags": {"amenity": "pharmacy", "healthcare": "pharmacy", "name": "\u0412\u0435\u043a \u0436\u0438\u0432\u0438", "name:uk": "\u0412\u0456\u043a \u0436\u0438\u0432\u0438"}}, {"type": "node", "id": 7359253383, "lat": 55.7028287, "lon": 37.9179374, "tags": {"amenity": "doctors"}}, {"type": "node", "id": 7359322781, "lat": 55.6995413, "lon": 37.9255066, "tags": {"amenity": "doctors", "healthcare": "doctor", "name": "\u041b\u0438\u0442\u0435\u0445", "name:uk": "\u041b\u0456\u0442\u0435\u0445"}}, {"type": "node", "id": 8523471545, "lat": 55.702054, "lon": 37.948238, "tags": {"addr:housenumber": "11 \u043a1", "addr:street": "\u0443\u043b\u0438\u0446\u0430 \u041b\u0430\u0432\u0440\u0438\u043d\u0435\u043d\u043a\u043e", "amenity": "pharmacy", "check_date": "2024-04-13", "dispensing": "yes", "healthcare": "pharmacy", "name": "\u0411\u0443\u0434\u044c \u0417\u0434\u043e\u0440\u043e\u0432!", "name:uk": "\u0411\u0443\u0434\u044c \u0437\u0434\u043e\u0440\u043e\u0432!", "opening_hours": "09:00-22:00"}}, {"type": "node", "id": 8626714019, "lat": 55.7028847, "lon": 37.9463272, "tags": {"addr:city": "\u041c\u043e\u0441\u043a\u0432\u0430", "addr:housenumber": "4 \u043a6", "addr:street": "\u0443\u043b\u0438\u0446\u0430 \u0412\u0435\u0440\u0442\u043e\u043b\u0451\u0442\u0447\u0438\u043a\u043e\u0432", "amenity": "pharmacy", "dispensing": "yes", "healthcare": "pharmacy", "name": "\u041f\u043b\u0430\u043d\u0435\u0442\u0430 \u0417\u0434\u043e\u0440\u043e\u0432\u044c\u044f", "name:uk": "\u041f\u043b\u0430\u043d\u0435\u0442\u0430 \u0417\u0434\u043e\u0440\u043e\u0432'\u044f", "opening_hours": "Mo-Su 08:00-22:00"}}, {"type": "node", "id": 8859309504, "lat": 55.70537, "lon": 37.9356833, "tags": {"amenity": "pharmacy", "dispensing": "yes", "healthcare": "pharmacy", "name": "\u0410\u043f\u0442\u0435\u043a\u0430 \u043d\u0438\u0437\u043a\u0438\u0445 \u0446\u0435\u043d", "name:uk": "\u0410\u043f\u0442\u0435\u043a\u0430 \u043d\u0438\u0437\u044c\u043a\u0438\u0445 \u0446\u0456\u043d"}}, {"type": "node", "id": 8859309511, "lat": 55.7053078, "lon": 37.9334005, "tags": {"amenity": "pharmacy", "dispensing": "yes", "healthcare": "pharmacy", "name": "\u041a\u0430\u043f\u0441\u0443\u043b\u0430", "name:uk": "\u041a\u0430\u043f\u0441\u0443\u043b\u0430"}}, {"type": "node", "id": 8859363093, "lat": 55.705377, "lon": 37.9365804, "tags": {"amenity": "dentist", "healthcare": "dentist"}}, {"type": "node", "id": 8934071809, "lat": 55.6974257, "lon": 37.9243688, "tags": {"amenity": "dentist", "health_facility:type": "clinic", "health_specialty:dentistry": "yes", "healthcare": "dentist", "medical_system:western": "yes", "name": "\u0410\u043b\u0432\u0438 \u0414\u0435\u043d\u0442", "name:uk": "\u0410\u043b\u0432\u0456 \u0414\u0435\u043d\u0442"}}, {"type": "node", "id": 9447207428, "lat": 55.7026589, "lon": 37.9429927, "tags": {"amenity": "pharmacy", "brand": "\u0421\u0442\u043e\u043b\u0438\u0447\u043a\u0438", "brand:wikidata": "Q109717665", "contact:email": "office@neo-pharm.ru", "contact:ok": "https://ok.ru/stolichki", "contact:phone": "+7 495 2155215", "contact:vk": "https://vk.com/stolichki_official", "contact:website": "https://stolichki.ru", "healthcare": "pharmacy", "name": "\u0421\u0442\u043e\u043b\u0438\u0447\u043a\u0438", "name:uk": "\u0421\u0442\u043e\u043b\u0438\u0447\u043a\u0438", "opening_hours": "Mo-Fr 08:30-21:30; Sa-Su 09:00-21:00"}}, {"type": "node", "id": 9447207518, "lat": 55.705484, "lon": 37.920744, "tags": {"amenity": "pharmacy", "brand": "\u0421\u0442\u043e\u043b\u0438\u0447\u043a\u0438", "brand:wikidata": "Q109717665", "contact:email": "office@neo-pharm.ru", "contact:facebook": "https://www.facebook.com/stolichki", "contact:instagram": "https://www.instagram.com/stolichki", "contact:ok": "https://ok.ru/stolichki", "contact:phone": "+7 495 2155215", "contact:vk": "https://vk.com/stolichki_official", "contact:website": "https://stolichki.ru", "healthcare": "pharmacy", "name": "\u0421\u0442\u043e\u043b\u0438\u0447\u043a\u0438", "name:ru": "\u0421\u0442\u043e\u043b\u0438\u0447\u043a\u0438", "name:uk": "\u0421\u0442\u043e\u043b\u0438\u0447\u043a\u0438", "opening_hours": "Mo-Su 09:00-21:00"}}, {"type": "node", "id": 9612516777, "lat": 55.7039284, "lon": 37.9239812, "tags": {"amenity": "doctors", "brand": "\u0418\u043d\u0432\u0438\u0442\u0440\u043e", "contact:email": "info@invitro.ru", "contact:phone": "+7 495 3630363", "contact:vk": "https://vk.com/invitro", "contact:website": "https://www.invitro.ru/", "healthcare": "laboratory", "name": "\u0418\u043d\u0432\u0438\u0442\u0440\u043e", "name:en": "Invitro", "name:uk": "\u0406\u043d\u0432\u0456\u0442\u0440\u043e", "opening_hours": "Mo-Fr 07:00-20:00;Sa 07:30-15:00;Su 08:00-15:00"}}, {"type": "node", "id": 9648490065, "lat": 55.7048105, "lon": 37.9170537, "tags": {"amenity": "pharmacy", "dispensing": "yes", "healthcare": "pharmacy", "name": "\u0412\u0438\u0442\u0430\u043c\u0438\u043d\u043a\u0430", "name:uk": "\u0412\u0456\u0442\u0430\u043c\u0456\u043d\u043a\u0430"}}, {"type": "node", "id": 9992506907, "lat": 55.7074421, "lon": 37.93401, "tags": {"amenity": "pharmacy", "contact:email": "office@neo-pharm.ru", "contact:phone": "+7 495 2155215", "contact:website": "https://stolichki.ru/", "healthcare": "pharmacy", "name": "\u0421\u0442\u043e\u043b\u0438\u0447\u043a\u0438", "name:uk": "\u0421\u0442\u043e\u043b\u0438\u0447\u043a\u0438", "opening_hours": "Mo-Su 09:00-21:00"}}, {"type": "node", "id": 10675034604, "lat": 55.6990805, "lon": 37.9298097}, {"type": "node", "id": 10675034605, "lat": 55.6990964, "lon": 37.9297855}, {"type": "node", "id": 10675034606, "lat": 55.6990843, "lon": 37.930031}, {"type": "node", "id": 10675034612, "lat": 55.6986867, "lon": 37.929093, "tags": {"access": "private", "barrier": "gate"}}, {"type": "node", "id": 10675034623, "lat": 55.6992923, "lon": 37.9299213, "tags": {"access": "private", "barrier": "gate"}}, {"type": "node", "id": 10675034636, "lat": 55.6982228, "lon": 37.9302523}, {"type": "node", "id": 10675034637, "lat": 55.6982302, "lon": 37.9291967}, {"type": "node", "id": 10675034638, "lat": 55.6983433, "lon": 37.9290011}, {"type": "node", "id": 10675034639, "lat": 55.6985362, "lon": 37.9288647}, {"type": "node", "id": 10675034640, "lat": 55.6986875, "lon": 37.9289675}, {"type": "node", "id": 10675034641, "lat": 55.6986861, "lon": 37.9291794}, {"type": "node", "id": 10675034642, "lat": 55.698972, "lon": 37.9296525}, {"type": "node", "id": 10675034643, "lat": 55.6991383, "lon": 37.9302747}, {"type": "node", "id": 10675034644, "lat": 55.6993093, "lon": 37.9299494}, {"type": "node", "id": 10675034645, "lat": 55.6990454, "lon": 37.9295128}, {"type": "node", "id": 10700291508, "lat": 55.6990646, "lon": 37.9295446, "tags": {"access": "private", "barrier": "gate"}}, {"type": "node", "id": 10755458542, "lat": 55.7001902, "lon": 37.9325114, "tags": {"addr:housenumber": "17 \u043a3", "addr:street": "\u041f\u043e\u043a\u0440\u043e\u0432\u0441\u043a\u0430\u044f \u0443\u043b\u0438\u0446\u0430", "amenity": "pharmacy", "brand": "\u041f\u043b\u0430\u043d\u0435\u0442\u0430 \u0437\u0434\u043e\u0440\u043e\u0432\u044c\u044f", "brand:wikidata": "Q109732844", "check_date": "2025-07-16", "healthcare": "pharmacy", "name": "\u041f\u043b\u0430\u043d\u0435\u0442\u0430 \u0437\u0434\u043e\u0440\u043e\u0432\u044c\u044f", "name:uk": "\u041f\u043b\u0430\u043d\u0435\u0442\u0430 \u0437\u0434\u043e\u0440\u043e\u0432'\u044f", "opening_hours": "08:00-22:00", "payment:cash": "yes", "payment:mastercard": "yes", "payment:mir": "yes", "payment:visa": "yes", "phone": "+7 495 369-33-00", "website": "https://planetazdorovo.ru/?utm_campaign=rocketgata&utm_medium=ssylka&utm_source=yandex", "wheelchair": "yes"}}, {"type": "node", "id": 10755458547, "lat": 55.6985396, "lon": 37.9363858, "tags": {"addr:housenumber": "17 \u043a2", "addr:street": "\u041f\u043e\u043a\u0440\u043e\u0432\u0441\u043a\u0430\u044f \u0443\u043b\u0438\u0446\u0430", "amenity": "dentist", "check_date": "2025-07-16", "healthcare": "dentist", "name": "\u0421\u0442\u043e\u043c\u0430\u0442\u043e\u043b\u043e\u0433\u0438\u044f \"\u0410\u0443\u0440\u0435\u043b\u0438.\u0414\u0435\u043d\u0442\"", "name:uk": "\u0421\u0442\u043e\u043c\u0430\u0442\u043e\u043b\u043e\u0433\u0456\u044f \"\u0410\u0443\u0440\u0435\u043b\u0456.\u0414\u0435\u043d\u0442\"", "opening_hours": "09:00-21:00", "phone": "+7 915 010-22-55", "website": "https://aurelident.ru/", "wheelchair": "yes"}}, {"type": "node", "id": 11007763127, "lat": 55.7005954, "lon": 37.9397446, "tags": {"amenity": "doctors", "brand": "\u0418\u043d\u0432\u0438\u0442\u0440\u043e", "brand:wikidata": "Q4200546", "brand:wikipedia": "ru:\u0418\u043d\u0432\u0438\u0442\u0440\u043e (\u043a\u043e\u043c\u043f\u0430\u043d\u0438\u044f)", "contact:email": "info@invitro.ru", "contact:phone": "+7 800 2003630", "contact:website": "https://www.invitro.ru/", "health_facility:type": "laboratory", "healthcare": "laboratory", "name": "\u0418\u043d\u0432\u0438\u0442\u0440\u043e", "name:en": "Invitro", "name:ru": "\u0418\u043d\u0432\u0438\u0442\u0440\u043e", "name:uk": "\u0406\u043d\u0432\u0456\u0442\u0440\u043e", "opening_hours": "Mo-Fr 07:30-18:00; Sa-Su 08:00-15:00", "operator:wikidata": "Q4200546", "operator:wikipedia": "ru:\u041c\u0435\u0434\u0438\u0446\u0438\u043d\u0441\u043a\u0430\u044f \u043a\u043e\u043c\u043f\u0430\u043d\u0438\u044f \u0418\u043d\u0432\u0438\u0442\u0440\u043e"}}, {"type": "node", "id": 11053066065, "lat": 55.7005988, "lon": 37.9397876, "tags": {"amenity": "doctors", "contact:email": "info@invitro.ru", "contact:phone": "+7 800 2003630", "contact:website": "https://www.invitro.ru", "healthcare": "laboratory", "name": "\u0418\u043d\u0432\u0438\u0442\u0440\u043e", "opening_hours": "Mo-Tu 07:00-18:00; Su 09:00-15:00; We-Sa 07:30-20:00"}}, {"type": "node", "id": 11069618898, "lat": 55.7031423, "lon": 37.943953, "tags": {"amenity": "pharmacy", "contact:phone": "+7 499 6536277", "contact:website": "https://gorzdrav.org", "healthcare": "pharmacy", "name": "\u0413\u043e\u0440\u0437\u0434\u0440\u0430\u0432", "opening_hours": "Mo-Su 08:00-22:00"}}, {"type": "node", "id": 11185574580, "lat": 55.7073968, "lon": 37.9289299, "tags": {"amenity": "pharmacy", "contact:phone": "+7 499 6536277", "contact:website": "https://gorzdrav.org", "healthcare": "pharmacy", "name": "\u0413\u043e\u0440\u0437\u0434\u0440\u0430\u0432", "opening_hours": "Mo-Su 08:00-22:00"}}, {"type": "node", "id": 11811313160, "lat": 55.6991223, "lon": 37.9415114, "tags": {"amenity": "pharmacy", "brand": "\u041f\u043b\u0430\u043d\u0435\u0442\u0430 \u0437\u0434\u043e\u0440\u043e\u0432\u044c\u044f", "brand:wikidata": "Q109732844", "check_date": "2024-08-11", "healthcare": "pharmacy", "name": "\u041f\u043b\u0430\u043d\u0435\u0442\u0430 \u0437\u0434\u043e\u0440\u043e\u0432\u044c\u044f", "opening_hours": "08:00-22:00"}}, {"type": "node", "id": 11811313162, "lat": 55.6994403, "lon": 37.9416867, "tags": {"amenity": "pharmacy", "check_date": "2024-08-11", "healthcare": "pharmacy", "name": "\u0421\u0435\u043a\u0440\u0435\u0442\u044b \u0434\u043e\u043b\u0433\u043e\u043b\u0435\u0442\u0438\u044f", "opening_hours": "08:00-22:00"}}, {"type": "node", "id": 11811338169, "lat": 55.7008229, "lon": 37.9422806, "tags": {"amenity": "pharmacy", "check_date": "2024-04-12", "healthcare": "pharmacy", "name": "Superapteka.ru", "opening_hours": "Mo-Fr 08:00-22:00; Sa-Su 09:00-22:00", "phone": "+7 495 988-33-38"}}, {"type": "node", "id": 11813658767, "lat": 55.7017969, "lon": 37.9316132, "tags": {"amenity": "pharmacy", "brand": "\u0417\u0434\u0435\u0441\u044c \u0430\u043f\u0442\u0435\u043a\u0430", "check_date": "2025-07-16", "healthcare": "pharmacy", "name": "\u0417\u0434\u0435\u0441\u044c \u0430\u043f\u0442\u0435\u043a\u0430", "opening_hours": "09:00-21:00", "phone": "+7 800 7003024"}}, {"type": "node", "id": 11813658773, "lat": 55.701732, "lon": 37.9494976, "tags": {"amenity": "clinic", "check_date": "2024-04-13", "healthcare": "clinic", "name": "\u041a\u0438\u043d\u0434\u0435\u0440 \u041f\u043b\u044e\u0441", "opening_hours": "09:00-20:00"}}, {"type": "node", "id": 12452918023, "lat": 55.7013454, "lon": 37.9446058, "tags": {"amenity": "doctors", "contact:phone": "+7 966 1130003", "contact:website": "https://citilab.ru", "healthcare": "laboratory", "name": "\u0421\u0438\u0442\u0438\u043b\u0430\u0431", "opening_hours": "Mo-Su 07:00-19:00"}}, {"type": "node", "id": 12922683547, "lat": 55.6872654, "lon": 37.918759, "tags": {"amenity": "pharmacy", "contact:phone": "+7 499 6536277", "contact:website": "https://gorzdrav.org", "healthcare": "pharmacy", "name": "\u0413\u043e\u0440\u0437\u0434\u0440\u0430\u0432", "opening_hours": "Mo-Fr 09:00-22:00; Sa-Su 09:00-21:00"}}, {"type": "node", "id": 13004121974, "lat": 55.7005467, "lon": 37.9340898, "tags": {"amenity": "pharmacy", "brand": "\u041f\u043b\u0430\u043d\u0435\u0442\u0430 \u0437\u0434\u043e\u0440\u043e\u0432\u044c\u044f", "brand:wikidata": "Q109732844", "check_date": "2025-07-16", "healthcare": "pharmacy", "name": "\u041f\u043b\u0430\u043d\u0435\u0442\u0430 \u0437\u0434\u043e\u0440\u043e\u0432\u044c\u044f", "opening_hours": "08:00-23:00"}}, {"type": "node", "id": 13004121978, "lat": 55.6985176, "lon": 37.9323132, "tags": {"amenity": "doctors", "check_date": "2025-07-16", "healthcare": "doctor", "healthcare:speciality": "ophthalmology", "name": "\u041e\u043a\u0443\u043b\u0438\u0441\u0442", "opening_hours": "Mo-Sa 10:00-18:00", "phone": "+7 967 222-30-10", "website": "https://okulist-77.ru"}}, {"type": "node", "id": 13004121986, "lat": 55.7015274, "lon": 37.9326976, "tags": {"amenity": "pharmacy", "check_date": "2025-07-16", "healthcare": "pharmacy", "name": "\u0410\u043f\u0442\u0435\u0447\u043d\u044b\u0439 \u043f\u0443\u043d\u043a\u0442", "opening_hours": "24/7"}}, {"type": "way", "id": 147906791, "nodes": [1610363893, 5139881327, 5139880716, 1610363897, 5139881341, 1558570159, 5139881342, 1610353765, 1610353774, 1610353790, 1610353801, 1610353812, 1610353830, 1610353836, 1610353842, 1610353852, 1610361292, 5139881329, 1610353858, 1610353863, 4135619001, 1610353914, 1610363893], "tags": {"addr:housenumber": "19", "addr:postcode": "111674", "addr:street": "2-\u044f \u0412\u043e\u043b\u044c\u0441\u043a\u0430\u044f \u0443\u043b\u0438\u0446\u0430", "alt_name": "\u0413\u043e\u0440\u043e\u0434\u0441\u043a\u0430\u044f \u0431\u043e\u043b\u044c\u043d\u0438\u0446\u0430 \u2116 10", "amenity": "hospital", "barrier": "fence", "name": "\u0413\u0410\u0423\u0417 \u041c\u041d\u041f\u0426 \u041c\u0420\u0412\u0421\u041c \u0414\u0417\u041c, \u0424\u0438\u043b\u0438\u0430\u043b 3", "phone": "+7 495 7066948", "website": "http://cmrvsm.ru/filialy/filial-2/"}}, {"type": "way", "id": 147912110, "nodes": [1610363894, 4135619007, 4135619202, 1610363895, 1610363896, 1610363897, 5139880716, 5139881327, 1610363893, 1610353914, 1610363894], "tags": {"addr:housenumber": "21", "addr:postcode": "111674", "addr:street": "2-\u044f \u0412\u043e\u043b\u044c\u0441\u043a\u0430\u044f \u0443\u043b\u0438\u0446\u0430", "amenity": "hospital", "barrier": "fence", "health_facility:type": "nursing_home", "health_specialty:palliative_medicine": "yes", "healthcare": "hospice", "medical_system:western": "yes", "name": "\u0425\u043e\u0441\u043f\u0438\u0441 \u21168", "name:uk": "\u0425\u043e\u0441\u043f\u0456\u0441 \u21168", "phone": "+7 495 7066944"}}, {"type": "way", "id": 512468647, "nodes": [5010855940, 10675034605, 10675034604, 5010855941, 5010855942, 5010855943, 5010855944, 5010855945, 5010855928, 5010855929, 5010855930, 5010855931, 5010855932, 5010855933, 5010855934, 5010855935, 5010855936, 5010855937, 5010855938, 5010855939, 10675034606, 5010855940], "tags": {"addr:city": "\u041c\u043e\u0441\u043a\u0432\u0430", "addr:housenumber": "2", "addr:postcode": "111677", "addr:street": "\u0443\u043b\u0438\u0446\u0430 \u041d\u0435\u0434\u043e\u0440\u0443\u0431\u043e\u0432\u0430", "amenity": "clinic", "building": "clinic", "building:levels": "6", "building:material": "metal", "health_facility:type": "clinic", "healthcare": "clinic", "name": "\u0413\u043e\u0440\u043e\u0434\u0441\u043a\u0430\u044f \u043f\u043e\u043b\u0438\u043a\u043b\u0438\u043d\u0438\u043a\u0430 \u2116 23 \u2014 \u0444\u0438\u043b\u0438\u0430\u043b \u2116 5", "name:uk": "\u041c\u0456\u0441\u044c\u043a\u0430 \u043f\u043e\u043b\u0456\u043a\u043b\u0456\u043d\u0456\u043a\u0430 \u2116 23 \u2013 \u0444\u0456\u043b\u0456\u044f \u2116 5", "roof:shape": "flat"}}, {"type": "way", "id": 1147226207, "nodes": [10675034643, 10675034636, 10675034637, 10675034638, 10675034639, 10675034640, 10675034612, 10675034641, 10675034642, 10675034645, 10700291508, 10675034623, 10675034644, 10675034643], "tags": {"amenity": "clinic", "barrier": "fence", "healthcare": "clinic", "landuse": "construction", "name": "\u0413\u043e\u0440\u043e\u0434\u0441\u043a\u0430\u044f \u043f\u043e\u043b\u0438\u043a\u043b\u0438\u043d\u0438\u043a\u0430 \u2116 23 \u2014 \u0444\u0438\u043b\u0438\u0430\u043b \u2116 5"}}]}